STARLINK-36407          
1 67612U 26018Z   26056.57149346  .00251540  00000+0  16323-2 0  9990
2 67612  97.2852 121.8360 0001851  52.0305 308.1128 15.75271399  5454
STARLINK-36597          
1 67613U 26018AA  26056.58336806 -.00022836  00000+0 -15266-3 0  9993
2 67613  97.2855 121.9044 0000673  78.6011 120.8188 15.75187861  5418
NEONSAT-1A              
1 67614U 26019A   26056.30253674  .00003753  00000+0  24965-3 0  9997
2 67614  97.4095 180.3245 0012783 212.0939 147.9512 15.07674495  3954
ELECTRON KICK STAGE R/B 
1 67616U 26019C   26056.34695427  .00556736  10095-3  20008-2 0  9995
2 67616  97.4007 182.5497 0144645 166.6051 193.9120 15.74024757  4102
STARLINK-36548          
1 67617U 26020A   26055.75624642  .00291995  00000+0  17280-2 0  9995
2 67617  42.9970 220.8858 0000835 148.5687 211.5232 15.76457629  4044
STARLINK-36601          
1 67618U 26020B   26056.58336806 -.00034430  00000+0 -20920-3 0  9997
2 67618  42.9987 215.2416 0001495 264.1043   4.3547 15.76376595  5449
STARLINK-36119          
1 67619U 26020C   26056.57770100  .00019116  00000+0  12022-3 0  9992
2 67619  42.9975 215.8658 0001263 291.7754  68.2981 15.76347198  4176
STARLINK-36607          
1 67620U 26020D   26055.72340359  .00247949  00000+0  14779-2 0  9996
2 67620  42.9985 220.6216 0001390 248.8152 111.2569 15.76420993  4041
STARLINK-36615          
1 67621U 26020E   26056.58336806 -.00121902  00000+0 -75395-3 0  9998
2 67621  42.9985 215.1170 0001711 272.7338  45.4615 15.76438046  5442
STARLINK-36614          
1 67622U 26020F   26055.81303891  .00279238  00000+0  16557-2 0  9990
2 67622  43.0005 220.4495 0001984 279.2410  80.8235 15.76450312  4059
STARLINK-36600          
1 67623U 26020G   26056.44882400  .00350507  00000+0  20502-2 0  9993
2 67623  42.9980 216.6155 0002389 268.7790  91.2806 15.76557987  4151
STARLINK-36439          
1 67624U 26020H   26055.80427505  .00133532  00000+0  80772-3 0  9997
2 67624  42.9978 220.3777 0001850 284.4663  75.6001 15.76433471  4050
