CCSDS_OMM_VERS = 2.0
CREATION_DATE  = 
ORIGINATOR     = 

OBJECT_NAME    = STARLINK-36407
OBJECT_ID      = 2026-018Z
CENTER_NAME    = EARTH
REF_FRAME      = TEME
TIME_SYSTEM    = UTC
MEAN_ELEMENT_THEORY = SGP/SGP4

EPOCH          = 2026-02-25T13:42:57.034944
MEAN_MOTION    = 15.75271399
ECCENTRICITY   = .00018515
INCLINATION    = 97.2852
RA_OF_ASC_NODE = 121.8360
ARG_OF_PERICENTER = 52.0305
MEAN_ANOMALY   = 308.1128

EPHEMERIS_TYPE = 0
CLASSIFICATION_TYPE = U
NORAD_CAT_ID   = 67612
ELEMENT_SET_NO = 999
REV_AT_EPOCH   = 545
BSTAR          = .16323496E-2
MEAN_MOTION_DOT = .25154E-2
MEAN_MOTION_DDOT = 0

CCSDS_OMM_VERS = 2.0
CREATION_DATE  = 
ORIGINATOR     = 

OBJECT_NAME    = STARLINK-36597
OBJECT_ID      = 2026-018AA
CENTER_NAME    = EARTH
REF_FRAME      = TEME
TIME_SYSTEM    = UTC
MEAN_ELEMENT_THEORY = SGP/SGP4

EPOCH          = 2026-02-25T14:00:03.000384
MEAN_MOTION    = 15.75187861
ECCENTRICITY   = .00006731
INCLINATION    = 97.2855
RA_OF_ASC_NODE = 121.9044
ARG_OF_PERICENTER = 78.6011
MEAN_ANOMALY   = 120.8188

EPHEMERIS_TYPE = 0
CLASSIFICATION_TYPE = U
NORAD_CAT_ID   = 67613
ELEMENT_SET_NO = 999
REV_AT_EPOCH   = 541
BSTAR          = -.15266395E-3
MEAN_MOTION_DOT = -.22836E-3
MEAN_MOTION_DDOT = 0

CCSDS_OMM_VERS = 2.0
CREATION_DATE  = 
ORIGINATOR     = 

OBJECT_NAME    = NEONSAT-1A
OBJECT_ID      = 2026-019A
CENTER_NAME    = EARTH
REF_FRAME      = TEME
TIME_SYSTEM    = UTC
MEAN_ELEMENT_THEORY = SGP/SGP4

EPOCH          = 2026-02-25T07:15:39.174336
MEAN_MOTION    = 15.07674495
ECCENTRICITY   = .0012783
INCLINATION    = 97.4095
RA_OF_ASC_NODE = 180.3245
ARG_OF_PERICENTER = 212.0939
MEAN_ANOMALY   = 147.9512

EPHEMERIS_TYPE = 0
CLASSIFICATION_TYPE = U
NORAD_CAT_ID   = 67614
ELEMENT_SET_NO = 999
REV_AT_EPOCH   = 395
BSTAR          = .24965E-3
MEAN_MOTION_DOT = .3753E-4
MEAN_MOTION_DDOT = 0

CCSDS_OMM_VERS = 2.0
CREATION_DATE  = 
ORIGINATOR     = 

OBJECT_NAME    = ELECTRON KICK STAGE R/B
OBJECT_ID      = 2026-019C
CENTER_NAME    = EARTH
REF_FRAME      = TEME
TIME_SYSTEM    = UTC
MEAN_ELEMENT_THEORY = SGP/SGP4

EPOCH          = 2026-02-25T08:19:36.848928
MEAN_MOTION    = 15.74024757
ECCENTRICITY   = .01446452
INCLINATION    = 97.4007
RA_OF_ASC_NODE = 182.5497
ARG_OF_PERICENTER = 166.6051
MEAN_ANOMALY   = 193.9120

EPHEMERIS_TYPE = 0
CLASSIFICATION_TYPE = U
NORAD_CAT_ID   = 67616
ELEMENT_SET_NO = 999
REV_AT_EPOCH   = 410
BSTAR          = .20008131E-2
MEAN_MOTION_DOT = .556736E-2
MEAN_MOTION_DDOT = .1009489E-3

CCSDS_OMM_VERS = 2.0
CREATION_DATE  = 
ORIGINATOR     = 

OBJECT_NAME    = STARLINK-36548
OBJECT_ID      = 2026-020A
CENTER_NAME    = EARTH
REF_FRAME      = TEME
TIME_SYSTEM    = UTC
MEAN_ELEMENT_THEORY = SGP/SGP4

EPOCH          = 2026-02-24T18:08:59.690688
MEAN_MOTION    = 15.76457629
ECCENTRICITY   = .00008352
INCLINATION    = 42.9970
RA_OF_ASC_NODE = 220.8858
ARG_OF_PERICENTER = 148.5687
MEAN_ANOMALY   = 211.5232

EPHEMERIS_TYPE = 0
CLASSIFICATION_TYPE = U
NORAD_CAT_ID   = 67617
ELEMENT_SET_NO = 999
REV_AT_EPOCH   = 404
BSTAR          = .1728001E-2
MEAN_MOTION_DOT = .291995E-2
MEAN_MOTION_DDOT = 0

CCSDS_OMM_VERS = 2.0
CREATION_DATE  = 
ORIGINATOR     = 

OBJECT_NAME    = STARLINK-36601
OBJECT_ID      = 2026-020B
CENTER_NAME    = EARTH
REF_FRAME      = TEME
TIME_SYSTEM    = UTC
MEAN_ELEMENT_THEORY = SGP/SGP4

EPOCH          = 2026-02-25T14:00:03.000384
MEAN_MOTION    = 15.76376595
ECCENTRICITY   = .00014951
INCLINATION    = 42.9987
RA_OF_ASC_NODE = 215.2416
ARG_OF_PERICENTER = 264.1043
MEAN_ANOMALY   = 4.3547

EPHEMERIS_TYPE = 0
CLASSIFICATION_TYPE = U
NORAD_CAT_ID   = 67618
ELEMENT_SET_NO = 999
REV_AT_EPOCH   = 544
BSTAR          = -.20919779E-3
MEAN_MOTION_DOT = -.3443E-3
MEAN_MOTION_DDOT = 0

CCSDS_OMM_VERS = 2.0
CREATION_DATE  = 
ORIGINATOR     = 

OBJECT_NAME    = STARLINK-36119
OBJECT_ID      = 2026-020C
CENTER_NAME    = EARTH
REF_FRAME      = TEME
TIME_SYSTEM    = UTC
MEAN_ELEMENT_THEORY = SGP/SGP4

EPOCH          = 2026-02-25T13:51:53.366400
MEAN_MOTION    = 15.76347198
ECCENTRICITY   = .00012638
INCLINATION    = 42.9975
RA_OF_ASC_NODE = 215.8658
ARG_OF_PERICENTER = 291.7754
MEAN_ANOMALY   = 68.2981

EPHEMERIS_TYPE = 0
CLASSIFICATION_TYPE = U
NORAD_CAT_ID   = 67619
ELEMENT_SET_NO = 999
REV_AT_EPOCH   = 417
BSTAR          = .12021621E-3
MEAN_MOTION_DOT = .19116E-3
MEAN_MOTION_DDOT = 0

CCSDS_OMM_VERS = 2.0
CREATION_DATE  = 
ORIGINATOR     = 

OBJECT_NAME    = STARLINK-36607
OBJECT_ID      = 2026-020D
CENTER_NAME    = EARTH
REF_FRAME      = TEME
TIME_SYSTEM    = UTC
MEAN_ELEMENT_THEORY = SGP/SGP4

EPOCH          = 2026-02-24T17:21:42.070176
MEAN_MOTION    = 15.76420993
ECCENTRICITY   = .00013909
INCLINATION    = 42.9985
RA_OF_ASC_NODE = 220.6216
ARG_OF_PERICENTER = 248.8152
MEAN_ANOMALY   = 111.2569

EPHEMERIS_TYPE = 0
CLASSIFICATION_TYPE = U
NORAD_CAT_ID   = 67620
ELEMENT_SET_NO = 999
REV_AT_EPOCH   = 404
BSTAR          = .1477929E-2
MEAN_MOTION_DOT = .247949E-2
MEAN_MOTION_DDOT = 0

CCSDS_OMM_VERS = 2.0
CREATION_DATE  = 
ORIGINATOR     = 

OBJECT_NAME    = STARLINK-36615
OBJECT_ID      = 2026-020E
CENTER_NAME    = EARTH
REF_FRAME      = TEME
TIME_SYSTEM    = UTC
MEAN_ELEMENT_THEORY = SGP/SGP4

EPOCH          = 2026-02-25T14:00:03.000384
MEAN_MOTION    = 15.76438046
ECCENTRICITY   = .00017114
INCLINATION    = 42.9985
RA_OF_ASC_NODE = 215.1170
ARG_OF_PERICENTER = 272.7338
MEAN_ANOMALY   = 45.4615

EPHEMERIS_TYPE = 0
CLASSIFICATION_TYPE = U
NORAD_CAT_ID   = 67621
ELEMENT_SET_NO = 999
REV_AT_EPOCH   = 544
BSTAR          = -.75395372E-3
MEAN_MOTION_DOT = -.121902E-2
MEAN_MOTION_DDOT = 0

CCSDS_OMM_VERS = 2.0
CREATION_DATE  = 
ORIGINATOR     = 

OBJECT_NAME    = STARLINK-36614
OBJECT_ID      = 2026-020F
CENTER_NAME    = EARTH
REF_FRAME      = TEME
TIME_SYSTEM    = UTC
MEAN_ELEMENT_THEORY = SGP/SGP4

EPOCH          = 2026-02-24T19:30:46.561824
MEAN_MOTION    = 15.76450312
ECCENTRICITY   = .00019843
INCLINATION    = 43.0005
RA_OF_ASC_NODE = 220.4495
ARG_OF_PERICENTER = 279.2410
MEAN_ANOMALY   = 80.8235

EPHEMERIS_TYPE = 0
CLASSIFICATION_TYPE = U
NORAD_CAT_ID   = 67622
ELEMENT_SET_NO = 999
REV_AT_EPOCH   = 405
BSTAR          = .16557152E-2
MEAN_MOTION_DOT = .279238E-2
MEAN_MOTION_DDOT = 0

CCSDS_OMM_VERS = 2.0
CREATION_DATE  = 
ORIGINATOR     = 

OBJECT_NAME    = STARLINK-36600
OBJECT_ID      = 2026-020G
CENTER_NAME    = EARTH
REF_FRAME      = TEME
TIME_SYSTEM    = UTC
MEAN_ELEMENT_THEORY = SGP/SGP4

EPOCH          = 2026-02-25T10:46:18.393600
MEAN_MOTION    = 15.76557987
ECCENTRICITY   = .00023897
INCLINATION    = 42.9980
RA_OF_ASC_NODE = 216.6155
ARG_OF_PERICENTER = 268.7790
MEAN_ANOMALY   = 91.2806

EPHEMERIS_TYPE = 0
CLASSIFICATION_TYPE = U
NORAD_CAT_ID   = 67623
ELEMENT_SET_NO = 999
REV_AT_EPOCH   = 415
BSTAR          = .20501884E-2
MEAN_MOTION_DOT = .350507E-2
MEAN_MOTION_DDOT = 0

CCSDS_OMM_VERS = 2.0
CREATION_DATE  = 
ORIGINATOR     = 

OBJECT_NAME    = STARLINK-36439
OBJECT_ID      = 2026-020H
CENTER_NAME    = EARTH
REF_FRAME      = TEME
TIME_SYSTEM    = UTC
MEAN_ELEMENT_THEORY = SGP/SGP4

EPOCH          = 2026-02-24T19:18:09.364320
MEAN_MOTION    = 15.76433471
ECCENTRICITY   = .00018503
INCLINATION    = 42.9978
RA_OF_ASC_NODE = 220.3777
ARG_OF_PERICENTER = 284.4663
MEAN_ANOMALY   = 75.6001

EPHEMERIS_TYPE = 0
CLASSIFICATION_TYPE = U
NORAD_CAT_ID   = 67624
ELEMENT_SET_NO = 999
REV_AT_EPOCH   = 405
BSTAR          = .807722E-3
MEAN_MOTION_DOT = .133532E-2
MEAN_MOTION_DDOT = 0

